ONEWEB-0517             
1 54135U 22138Y   24113.43726226  .00000073  00000+0  14913-3 0  9997
2 54135  87.9099 101.3537 0001920  75.3412 284.7933 13.19724185 73193
ONEWEB-0518             
1 54136U 22138Z   24113.45621736  .00000146  00000+0  33213-3 0  9995
2 54136  87.9105 101.3594 0001877  83.3640 276.7707 13.19727109 73197
ONEWEB-0519             
1 54137U 22138AA  24113.86056787  .00000091  00000+0  19494-3 0  9993
2 54137  87.9098 101.2652 0001523  84.0175 276.1131 13.19728287 74129
ONEWEB-0520             
1 54138U 22138AB  24113.51624315  .00000022  00000+0  23487-4 0  9996
2 54138  87.9100 101.3366 0001485  98.4942 261.6359 13.19726059 74064
ONEWEB-0521             
1 54139U 22138AC  24113.47359860  .00000089  00000+0  19104-3 0  9995
2 54139  87.9097 101.3389 0002034  79.7892 280.3470 13.19725673 74032
ONEWEB-0522             
1 54140U 22138AD  24113.45306228  .00000130  00000+0  29351-3 0  9997
2 54140  87.9096 101.3447 0001922  91.7405 268.3948 13.19726217 73172
ONEWEB-0523             
1 54141U 22138AE  24113.43257950  .00000044  00000+0  77399-4 0  9993
2 54141  87.9186  70.7830 0002926  79.5946 280.5517 13.20771840 75586
ONEWEB-0524             
1 54142U 22138AF  24113.42152916  .00000080  00000+0  16411-3 0  9996
2 54142  87.9185  70.7890 0002813 101.7567 258.3882 13.20772573 75586
